{
    "type": "FeatureCollection",
    "name": "map_8",
    "crs": {
        "type": "name",
        "properties": {
            "name": "urn:ogc:def:crs:EPSG::26986"
        }
    },
    "features": [
        {
            "type": "Feature",
            "properties": {},
            "geometry": {
                "type": "Polygon",
                "coordinates": [
                    [
                        [
                            1.25859791116066,
                            1.9847779856903
                        ],
                        [
                            1.31772048783166,
                            37.8159594583919
                        ],
                        [
                            48.75994105883658,
                            37.00823774766266
                        ],
                        [
                            48.77817033436388,
                            1.30001363780663
                        ],
                        [
                            1.25859791116066,
                            1.9847779856903
                        ]
                    ],
                    [
                        [
                            9.404296875,
                            34.95799531086792
                        ],
                        [
                            9.404296875,
                            23.16056330904832
                        ],
                        [
                            37.26562500000001,
                            22.10599879975057
                        ],
                        [
                            41.39648437500001,
                            34.01624188966705
                        ],
                        [
                            9.404296875,
                            34.95799531086792
                        ]
                    ],
                    [
                        [
                            9.31640625,
                            4.91583280131316
                        ],
                        [
                            9.404296875,
                            18.64624514267061
                        ],
                        [
                            37.26562500000001,
                            18.89589255941503
                        ],
                        [
                            37.705078125,
                            5.87833210967433
                        ],
                        [
                            9.31640625,
                            4.91583280131316
                        ]
                    ]
                ]
            }
        }
    ]
}